[{"OBJECT_NAME":"STARLINK-2153","OBJECT_ID":"2021-024AJ","EPOCH":"2026-03-09T22:23:49.519392","MEAN_MOTION":15.30179306,"ECCENTRICITY":0.0001512,"INCLINATION":53.1593,"RA_OF_ASC_NODE":308.2664,"ARG_OF_PERICENTER":112.0172,"MEAN_ANOMALY":248.0989,"EPHEMERIS_TYPE":0,"CLASSIFICATION_TYPE":"U","NORAD_CAT_ID":48009,"ELEMENT_SET_NO":999,"REV_AT_EPOCH":27493,"BSTAR":3.4639663e-5,"MEAN_MOTION_DOT":6.66e-6,"MEAN_MOTION_DDOT":0},{"OBJECT_NAME":"CZ-2C R\/B","OBJECT_ID":"2024-218A","EPOCH":"2026-03-09T22:16:31.791072","MEAN_MOTION":15.22960743,"ECCENTRICITY":0.00453409,"INCLINATION":97.5416,"RA_OF_ASC_NODE":83.973,"ARG_OF_PERICENTER":359.5317,"MEAN_ANOMALY":0.5869,"EPHEMERIS_TYPE":0,"CLASSIFICATION_TYPE":"U","NORAD_CAT_ID":62078,"ELEMENT_SET_NO":999,"REV_AT_EPOCH":7134,"BSTAR":0.00039378379,"MEAN_MOTION_DOT":9.445e-5,"MEAN_MOTION_DDOT":0}]
